[{"OBJECT_NAME":"STARLINK-2504","OBJECT_ID":"2021-036BE","EPOCH":"2026-03-10T00:00:02.999808","MEAN_MOTION":15.25942094,"ECCENTRICITY":9.724e-5,"INCLINATION":53.1409,"RA_OF_ASC_NODE":99.5198,"ARG_OF_PERICENTER":86.8504,"MEAN_ANOMALY":190.4785,"EPHEMERIS_TYPE":0,"CLASSIFICATION_TYPE":"U","NORAD_CAT_ID":48328,"ELEMENT_SET_NO":999,"REV_AT_EPOCH":579,"BSTAR":0.065566196,"MEAN_MOTION_DOT":0.01878352,"MEAN_MOTION_DDOT":0},{"OBJECT_NAME":"FENGYUN 1C DEB","OBJECT_ID":"1999-025DFY","EPOCH":"2026-03-03T06:55:21.899424","MEAN_MOTION":15.25006274,"ECCENTRICITY":0.01038057,"INCLINATION":98.9901,"RA_OF_ASC_NODE":88.6648,"ARG_OF_PERICENTER":65.5781,"MEAN_ANOMALY":295.624,"EPHEMERIS_TYPE":0,"CLASSIFICATION_TYPE":"U","NORAD_CAT_ID":33687,"ELEMENT_SET_NO":999,"REV_AT_EPOCH":72733,"BSTAR":0.001670914,"MEAN_MOTION_DOT":0.00048845,"MEAN_MOTION_DDOT":0}]
